KUIPER-1001
1 49000U 22001A   25048.78901234  .00003456  00000-0  87654-4 0  9994
2 49000  51.9000  45.4215 0002345 110.0000 250.0000 15.05000000123459
KUIPER-1002
1 49001U 22001B   25048.88901234  .00003457  00000-0  87654-4 0  9995
2 49001  51.9000  44.2000 0002345 130.0000 230.0000 15.05000000123460
KUIPER-1003
1 49002U 22001C   25048.98901234  .00003458  00000-0  87654-4 0  9996
2 49002  51.9000  46.5000 0002345  90.0000 270.0000 15.05000000123461